SL-4 R/B                
1 39679U 14021B   25360.33626111  .00012120  00000+0  28766-3 0  9998
2 39679  51.6090 334.5015 0100716 195.3370 164.4554 15.36983969644980
ALOS-2                  
1 39766U 14029A   25360.60778509  .00002300  00000+0  31470-3 0  9997
2 39766  97.9218  95.2561 0001376  97.9801 262.1567 14.79474888626067
YAOGAN-29               
1 41038U 15069A   25360.65238777  .00000708  00000+0  94041-4 0  9994
2 41038  98.0208  23.8677 0000947 158.1481 201.9773 14.82898868545056
ASTRO-H (HITOMI)        
1 41337U 16012A   25360.44506249  .00003619  00000+0  21483-3 0  9997
2 41337  30.9992 109.0094 0009670 315.9296  44.0571 15.09439994541152
HXMT (HUIYAN)           
1 42758U 17034A   25360.62412765  .00006690  00000+0  34584-3 0  9997
2 42758  43.0143  62.5726 0031374 134.4524 225.8897 15.16398961471442
CZ-2C R/B               
1 43521U 18054D   25360.35768927  .00109280  00000+0  63657-3 0  9995
2 43521  35.1331  88.3539 0014475 279.0564  80.8532 15.76970658417207
SAOCOM 1A               
1 43641U 18076A   25360.64660122 -.00000529  00000+0 -59967-4 0  9990
2 43641  97.8846 184.8660 0001361  82.2345 277.9022 14.82144517390547
H-2A R/B                
1 43682U 18084L   25360.48866614  .00019308  00000+0  51472-3 0  9995
2 43682  98.8772 197.4229 0026477 278.1884  81.6354 15.37874390394510
SAOCOM 1B               
1 46265U 20059A   25360.61034825  .00000990  00000+0  13089-3 0  9995
2 46265  97.8841 183.9302 0001450  87.0200 273.1179 14.82153169287923
CSS (TIANHE)            
1 48274U 21035A   25360.22743832  .00019151  00000+0  23602-3 0  9995
2 48274  41.4680 294.7909 0008517 149.5046 210.6289 15.59708409266134
COSMOS 2550             
1 48865U 21056A   25360.55005821 -.00000144  00000+0  14442-5 0  9996
2 48865  67.1451 262.1617 0008181 269.8127  90.2090 15.33846232252247
CZ-2C R/B               
1 52794U 22058K   25360.35558590  .00028113  00000+0  49313-3 0  9997
2 52794  50.1918 334.0786 0044538 254.5414 105.0633 15.49174937198740
