CCSDS_OMM_VERS = 2.0
CREATION_DATE  = 
ORIGINATOR     = 

OBJECT_NAME    = SL-4 R/B
OBJECT_ID      = 2014-021B
CENTER_NAME    = EARTH
REF_FRAME      = TEME
TIME_SYSTEM    = UTC
MEAN_ELEMENT_THEORY = SGP/SGP4

EPOCH          = 2025-12-26T08:04:12.959904
MEAN_MOTION    = 15.36983969
ECCENTRICITY   = .01007161
INCLINATION    = 51.6090
RA_OF_ASC_NODE = 334.5015
ARG_OF_PERICENTER = 195.3370
MEAN_ANOMALY   = 164.4554

EPHEMERIS_TYPE = 0
CLASSIFICATION_TYPE = U
NORAD_CAT_ID   = 39679
ELEMENT_SET_NO = 999
REV_AT_EPOCH   = 64498
BSTAR          = .28766414E-3
MEAN_MOTION_DOT = .1212E-3
MEAN_MOTION_DDOT = 0

CCSDS_OMM_VERS = 2.0
CREATION_DATE  = 
ORIGINATOR     = 

OBJECT_NAME    = ALOS-2
OBJECT_ID      = 2014-029A
CENTER_NAME    = EARTH
REF_FRAME      = TEME
TIME_SYSTEM    = UTC
MEAN_ELEMENT_THEORY = SGP/SGP4

EPOCH          = 2025-12-26T14:35:12.631776
MEAN_MOTION    = 14.79474888
ECCENTRICITY   = .00013761
INCLINATION    = 97.9218
RA_OF_ASC_NODE = 95.2561
ARG_OF_PERICENTER = 97.9801
MEAN_ANOMALY   = 262.1567

EPHEMERIS_TYPE = 0
CLASSIFICATION_TYPE = U
NORAD_CAT_ID   = 39766
ELEMENT_SET_NO = 999
REV_AT_EPOCH   = 62606
BSTAR          = .31470414E-3
MEAN_MOTION_DOT = .23E-4
MEAN_MOTION_DDOT = 0

CCSDS_OMM_VERS = 2.0
CREATION_DATE  = 
ORIGINATOR     = 

OBJECT_NAME    = YAOGAN-29
OBJECT_ID      = 2015-069A
CENTER_NAME    = EARTH
REF_FRAME      = TEME
TIME_SYSTEM    = UTC
MEAN_ELEMENT_THEORY = SGP/SGP4

EPOCH          = 2025-12-26T15:39:26.303328
MEAN_MOTION    = 14.82898868
ECCENTRICITY   = .00009473
INCLINATION    = 98.0208
RA_OF_ASC_NODE = 23.8677
ARG_OF_PERICENTER = 158.1481
MEAN_ANOMALY   = 201.9773

EPHEMERIS_TYPE = 0
CLASSIFICATION_TYPE = U
NORAD_CAT_ID   = 41038
ELEMENT_SET_NO = 999
REV_AT_EPOCH   = 54505
BSTAR          = .94041417E-4
MEAN_MOTION_DOT = .708E-5
MEAN_MOTION_DDOT = 0

CCSDS_OMM_VERS = 2.0
CREATION_DATE  = 
ORIGINATOR     = 

OBJECT_NAME    = ASTRO-H (HITOMI)
OBJECT_ID      = 2016-012A
CENTER_NAME    = EARTH
REF_FRAME      = TEME
TIME_SYSTEM    = UTC
MEAN_ELEMENT_THEORY = SGP/SGP4

EPOCH          = 2025-12-26T10:40:53.399136
MEAN_MOTION    = 15.09439994
ECCENTRICITY   = .00096703
INCLINATION    = 30.9992
RA_OF_ASC_NODE = 109.0094
ARG_OF_PERICENTER = 315.9296
MEAN_ANOMALY   = 44.0571

EPHEMERIS_TYPE = 0
CLASSIFICATION_TYPE = U
NORAD_CAT_ID   = 41337
ELEMENT_SET_NO = 999
REV_AT_EPOCH   = 54115
BSTAR          = .21482946E-3
MEAN_MOTION_DOT = .3619E-4
MEAN_MOTION_DDOT = 0

CCSDS_OMM_VERS = 2.0
CREATION_DATE  = 
ORIGINATOR     = 

OBJECT_NAME    = HXMT (HUIYAN)
OBJECT_ID      = 2017-034A
CENTER_NAME    = EARTH
REF_FRAME      = TEME
TIME_SYSTEM    = UTC
MEAN_ELEMENT_THEORY = SGP/SGP4

EPOCH          = 2025-12-26T14:58:44.628960
MEAN_MOTION    = 15.16398961
ECCENTRICITY   = .00313746
INCLINATION    = 43.0143
RA_OF_ASC_NODE = 62.5726
ARG_OF_PERICENTER = 134.4524
MEAN_ANOMALY   = 225.8897

EPHEMERIS_TYPE = 0
CLASSIFICATION_TYPE = U
NORAD_CAT_ID   = 42758
ELEMENT_SET_NO = 999
REV_AT_EPOCH   = 47144
BSTAR          = .34584308E-3
MEAN_MOTION_DOT = .669E-4
MEAN_MOTION_DDOT = 0

CCSDS_OMM_VERS = 2.0
CREATION_DATE  = 
ORIGINATOR     = 

OBJECT_NAME    = CZ-2C R/B
OBJECT_ID      = 2018-054D
CENTER_NAME    = EARTH
REF_FRAME      = TEME
TIME_SYSTEM    = UTC
MEAN_ELEMENT_THEORY = SGP/SGP4

EPOCH          = 2025-12-26T08:35:04.352928
MEAN_MOTION    = 15.76970658
ECCENTRICITY   = .00144752
INCLINATION    = 35.1331
RA_OF_ASC_NODE = 88.3539
ARG_OF_PERICENTER = 279.0564
MEAN_ANOMALY   = 80.8532

EPHEMERIS_TYPE = 0
CLASSIFICATION_TYPE = U
NORAD_CAT_ID   = 43521
ELEMENT_SET_NO = 999
REV_AT_EPOCH   = 41720
BSTAR          = .63656983E-3
MEAN_MOTION_DOT = .10928E-2
MEAN_MOTION_DDOT = 0

CCSDS_OMM_VERS = 2.0
CREATION_DATE  = 
ORIGINATOR     = 

OBJECT_NAME    = SAOCOM 1A
OBJECT_ID      = 2018-076A
CENTER_NAME    = EARTH
REF_FRAME      = TEME
TIME_SYSTEM    = UTC
MEAN_ELEMENT_THEORY = SGP/SGP4

EPOCH          = 2025-12-26T15:31:06.345408
MEAN_MOTION    = 14.82144517
ECCENTRICITY   = .00013614
INCLINATION    = 97.8846
RA_OF_ASC_NODE = 184.8660
ARG_OF_PERICENTER = 82.2345
MEAN_ANOMALY   = 277.9022

EPHEMERIS_TYPE = 0
CLASSIFICATION_TYPE = U
NORAD_CAT_ID   = 43641
ELEMENT_SET_NO = 999
REV_AT_EPOCH   = 39054
BSTAR          = -.59966792E-4
MEAN_MOTION_DOT = -.529E-5
MEAN_MOTION_DDOT = 0

CCSDS_OMM_VERS = 2.0
CREATION_DATE  = 
ORIGINATOR     = 

OBJECT_NAME    = H-2A R/B
OBJECT_ID      = 2018-084L
CENTER_NAME    = EARTH
REF_FRAME      = TEME
TIME_SYSTEM    = UTC
MEAN_ELEMENT_THEORY = SGP/SGP4

EPOCH          = 2025-12-26T11:43:40.754496
MEAN_MOTION    = 15.37874390
ECCENTRICITY   = .00264778
INCLINATION    = 98.8772
RA_OF_ASC_NODE = 197.4229
ARG_OF_PERICENTER = 278.1884
MEAN_ANOMALY   = 81.6354

EPHEMERIS_TYPE = 0
CLASSIFICATION_TYPE = U
NORAD_CAT_ID   = 43682
ELEMENT_SET_NO = 999
REV_AT_EPOCH   = 39451
BSTAR          = .51471607E-3
MEAN_MOTION_DOT = .19308E-3
MEAN_MOTION_DDOT = 0

CCSDS_OMM_VERS = 2.0
CREATION_DATE  = 
ORIGINATOR     = 

OBJECT_NAME    = SAOCOM 1B
OBJECT_ID      = 2020-059A
CENTER_NAME    = EARTH
REF_FRAME      = TEME
TIME_SYSTEM    = UTC
MEAN_ELEMENT_THEORY = SGP/SGP4

EPOCH          = 2025-12-26T14:38:54.088800
MEAN_MOTION    = 14.82153169
ECCENTRICITY   = .00014509
INCLINATION    = 97.8841
RA_OF_ASC_NODE = 183.9302
ARG_OF_PERICENTER = 87.0200
MEAN_ANOMALY   = 273.1179

EPHEMERIS_TYPE = 0
CLASSIFICATION_TYPE = U
NORAD_CAT_ID   = 46265
ELEMENT_SET_NO = 999
REV_AT_EPOCH   = 28792
BSTAR          = .13089232E-3
MEAN_MOTION_DOT = .99E-5
MEAN_MOTION_DDOT = 0

CCSDS_OMM_VERS = 2.0
CREATION_DATE  = 
ORIGINATOR     = 

OBJECT_NAME    = CSS (TIANHE)
OBJECT_ID      = 2021-035A
CENTER_NAME    = EARTH
REF_FRAME      = TEME
TIME_SYSTEM    = UTC
MEAN_ELEMENT_THEORY = SGP/SGP4

EPOCH          = 2025-12-26T05:27:30.670848
MEAN_MOTION    = 15.59708409
ECCENTRICITY   = .00085179
INCLINATION    = 41.4680
RA_OF_ASC_NODE = 294.7909
ARG_OF_PERICENTER = 149.5046
MEAN_ANOMALY   = 210.6289

EPHEMERIS_TYPE = 0
CLASSIFICATION_TYPE = U
NORAD_CAT_ID   = 48274
ELEMENT_SET_NO = 999
REV_AT_EPOCH   = 26613
BSTAR          = .23601706E-3
MEAN_MOTION_DOT = .19151E-3
MEAN_MOTION_DDOT = 0

CCSDS_OMM_VERS = 2.0
CREATION_DATE  = 
ORIGINATOR     = 

OBJECT_NAME    = COSMOS 2550
OBJECT_ID      = 2021-056A
CENTER_NAME    = EARTH
REF_FRAME      = TEME
TIME_SYSTEM    = UTC
MEAN_ELEMENT_THEORY = SGP/SGP4

EPOCH          = 2025-12-26T13:12:05.029344
MEAN_MOTION    = 15.33846232
ECCENTRICITY   = .00081818
INCLINATION    = 67.1451
RA_OF_ASC_NODE = 262.1617
ARG_OF_PERICENTER = 269.8127
MEAN_ANOMALY   = 90.2090

EPHEMERIS_TYPE = 0
CLASSIFICATION_TYPE = U
NORAD_CAT_ID   = 48865
ELEMENT_SET_NO = 999
REV_AT_EPOCH   = 25224
BSTAR          = .1444175E-5
MEAN_MOTION_DOT = -.144E-5
MEAN_MOTION_DDOT = 0

CCSDS_OMM_VERS = 2.0
CREATION_DATE  = 
ORIGINATOR     = 

OBJECT_NAME    = CZ-2C R/B
OBJECT_ID      = 2022-058K
CENTER_NAME    = EARTH
REF_FRAME      = TEME
TIME_SYSTEM    = UTC
MEAN_ELEMENT_THEORY = SGP/SGP4

EPOCH          = 2025-12-26T08:32:02.621760
MEAN_MOTION    = 15.49174937
ECCENTRICITY   = .00445387
INCLINATION    = 50.1918
RA_OF_ASC_NODE = 334.0786
ARG_OF_PERICENTER = 254.5414
MEAN_ANOMALY   = 105.0633

EPHEMERIS_TYPE = 0
CLASSIFICATION_TYPE = U
NORAD_CAT_ID   = 52794
ELEMENT_SET_NO = 999
REV_AT_EPOCH   = 19874
BSTAR          = .4931324E-3
MEAN_MOTION_DOT = .28113E-3
MEAN_MOTION_DDOT = 0

